[
    {
        "Altitude(m)": 610405.2932778194,
        "Argument of Periapsis(deg)": 0.0,
        "Eccentricity": 0.0,
        "Inclination(deg)": 60.0,
        "Latitude(deg)": 52.11118949103211,
        "Longitude(deg)": -22.522690979364455,
        "Mean Anomaly(deg)": -245.4545,
        "RAAN(deg)": 305.0,
        "Satellite Name": "Test1 1349",
        "Satellite Number": 1349,
        "Semi-Major Axis(m)": 6980739.136638005,
        "Time(s)": 0
    },
    {
        "Altitude(m)": 610321.8665813309,
        "Argument of Periapsis(deg)": 0.00010418945913296404,
        "Eccentricity": 0.0,
        "Inclination(deg)": 60.0,
        "Latitude(deg)": 51.745905611050155,
        "Longitude(deg)": -21.75379711245865,
        "Mean Anomaly(deg)": -244.83439385453815,
        "RAAN(deg)": 304.99957995086027,
        "Satellite Name": "Test1 1349",
        "Satellite Number": 1349,
        "Semi-Major Axis(m)": 6980739.136638005,
        "Time(s)": 10
    }
]